{"type": "FeatureCollection", "features": [ {"type": "Feature", "properties": {"norad_id": 32230, "name": "FENGYUN 1C DEB", "group": "fengyun-1c-debris", "lat": -19.561014168791687, "lon": 154.6645881215164, "alt_km": 694.6881848900257, "timestamp": "2025-12-26T23:26:42.413529+00:00", "meta": {"OBJECT_NAME": "FENGYUN 1C DEB", "OBJECT_ID": "1999-025CWC", "EPOCH": "2025-12-20T09:22:08.439744", "MEAN_MOTION": 14.56275202, "ECCENTRICITY": 0.00497589, "INCLINATION": 98.8696, "RA_OF_ASC_NODE": 144.4839, "ARG_OF_PERICENTER": 64.7578, "MEAN_ANOMALY": 324.6156, "EPHEMERIS_TYPE": 0, "CLASSIFICATION_TYPE": "U", "NORAD_CAT_ID": 32230, "ELEMENT_SET_NO": 999, "REV_AT_EPOCH": 60781, "BSTAR": 0.001606742, "MEAN_MOTION_DOT": 7.185e-05, "MEAN_MOTION_DDOT": 0}, "tle": {"line1": "1 32230U 99025CWC 25354.39037546  .00007185  00000+0  16067-2 0  9993", "line2": "2 32230  98.8696 144.4839 0049758  64.7578 324.6156 14.56275202607814"}}, "geometry": {"type": "Point", "coordinates": [154.6645881215164, -19.561014168791687]}}, {"type": "Feature", "properties": {"norad_id": 32234, "name": "FENGYUN 1C DEB", "group": "fengyun-1c-debris", "lat": 10.228290589775792, "lon": 31.29506268400057, "alt_km": 975.062948871262, "timestamp": "2025-12-26T23:26:42.413538+00:00", "meta": {"OBJECT_NAME": "FENGYUN 1C DEB", "OBJECT_ID": "1999-025CWG", "EPOCH": "2025-12-14T12:38:46.497984", "MEAN_MOTION": 13.9413283, "ECCENTRICITY": 0.01374559, "INCLINATION": 98.529, "RA_OF_ASC_NODE": 198.2432, "ARG_OF_PERICENTER": 331.2039, "MEAN_ANOMALY": 28.1585, "EPHEMERIS_TYPE": 0, "CLASSIFICATION_TYPE": "U", "NORAD_CAT_ID": 32234, "ELEMENT_SET_NO": 999, "REV_AT_EPOCH": 93234, "BSTAR": 0.0014985343, "MEAN_MOTION_DOT": 2.108e-05, "MEAN_MOTION_DDOT": 0}, "tle": {"line1": "1 32234U 99025CWG 25348.52692706  .00002108  00000+0  14985-2 0  9997", "line2": "2 32234  98.5290 198.2432 0137455 331.2039  28.1585 13.94132830932348"}}, "geometry": {"type": "Point", "coordinates": [31.29506268400057, 10.228290589775792]}}, {"type": "Feature", "properties": {"norad_id": 32241, "name": "FENGYUN 1C DEB", "group": "fengyun-1c-debris", "lat": 0.6651157612399944, "lon": -148.88525073136037, "alt_km": 693.4128879533828, "timestamp": "2025-12-26T23:26:42.413547+00:00", "meta": {"OBJECT_NAME": "FENGYUN 1C DEB", "OBJECT_ID": "1999-025CWP", "EPOCH": "2025-12-22T19:26:55.545504", "MEAN_MOTION": 14.28813741, "ECCENTRICITY": 0.01466316, "INCLINATION": 99.0757, "RA_OF_ASC_NODE": 26.6735, "ARG_OF_PERICENTER": 194.5712, "MEAN_ANOMALY": 165.1219, "EPHEMERIS_TYPE": 0, "CLASSIFICATION_TYPE": "U", "NORAD_CAT_ID": 32241, "ELEMENT_SET_NO": 999, "REV_AT_EPOCH": 93967, "BSTAR": 0.0013225361, "MEAN_MOTION_DOT": 3.694e-05, "MEAN_MOTION_DDOT": 0}, "tle": {"line1": "1 32241U 99025CWP 25356.81036511  .00003694  00000+0  13225-2 0  9999", "line2": "2 32241  99.0757  26.6735 0146631 194.5712 165.1219 14.28813741939678"}}, "geometry": {"type": "Point", "coordinates": [-148.88525073136037, 0.6651157612399944]}}, {"type": "Feature", "properties": {"norad_id": 32243, "name": "FENGYUN 1C DEB", "group": "fengyun-1c-debris", "lat": -34.32752375608827, "lon": 30.050714348307963, "alt_km": 970.2979682405485, "timestamp": "2025-12-26T23:26:42.413557+00:00", "meta": {"OBJECT_NAME": "FENGYUN 1C DEB", "OBJECT_ID": "1999-025CWR", "EPOCH": "2025-12-24T13:29:19.216608", "MEAN_MOTION": 14.04698676, "ECCENTRICITY": 0.02689617, "INCLINATION": 98.2678, "RA_OF_ASC_NODE": 22.149, "ARG_OF_PERICENTER": 89.9627, "MEAN_ANOMALY": 273.2359, "EPHEMERIS_TYPE": 0, "CLASSIFICATION_TYPE": "U", "NORAD_CAT_ID": 32243, "ELEMENT_SET_NO": 999, "REV_AT_EPOCH": 93754, "BSTAR": 0.0020051854, "MEAN_MOTION_DOT": 4.402e-05, "MEAN_MOTION_DDOT": 0}, "tle": {"line1": "1 32243U 99025CWR 25358.56202797  .00004402  00000+0  20052-2 0  9990", "line2": "2 32243  98.2678  22.1490 0268961  89.9627 273.2359 14.04698676937547"}}, "geometry": {"type": "Point", "coordinates": [30.050714348307963, -34.32752375608827]}}, {"type": "Feature", "properties": {"norad_id": 32245, "name": "FENGYUN 1C DEB", "group": "fengyun-1c-debris", "lat": -14.183160906059939, "lon": -159.73432828544694, "alt_km": 597.780360118878, "timestamp": "2025-12-26T23:26:42.413566+00:00", "meta": {"OBJECT_NAME": "FENGYUN 1C DEB", "OBJECT_ID": "1999-025CWT", "EPOCH": "2025-12-23T19:06:09.631584", "MEAN_MOTION": 14.77154099, "ECCENTRICITY": 0.00966875, "INCLINATION": 98.6537, "RA_OF_ASC_NODE": 194.6492, "ARG_OF_PERICENTER": 306.9863, "MEAN_ANOMALY": 52.2524, "EPHEMERIS_TYPE": 0, "CLASSIFICATION_TYPE": "U", "NORAD_CAT_ID": 32245, "ELEMENT_SET_NO": 999, "REV_AT_EPOCH": 66269, "BSTAR": 0.0012005122, "MEAN_MOTION_DOT": 9.119e-05, "MEAN_MOTION_DDOT": 0}, "tle": {"line1": "1 32245U 99025CWT 25357.79594481  .00009119  00000+0  12005-2 0  9999", "line2": "2 32245  98.6537 194.6492 0096687 306.9863  52.2524 14.77154099662698"}}, "geometry": {"type": "Point", "coordinates": [-159.73432828544694, -14.183160906059939]}}, {"type": "Feature", "properties": {"norad_id": 32304, "name": "FENGYUN 1C DEB", "group": "fengyun-1c-debris", "lat": 69.41538499022813, "lon": -68.98234074588346, "alt_km": 729.5007032683097, "timestamp": "2025-12-26T23:26:42.413577+00:00", "meta": {"OBJECT_NAME": "FENGYUN 1C DEB", "OBJECT_ID": "1999-025CWV", "EPOCH": "2025-12-24T03:14:40.087680", "MEAN_MOTION": 14.50665703, "ECCENTRICITY": 0.00495698, "INCLINATION": 99.3996, "RA_OF_ASC_NODE": 314.0193, "ARG_OF_PERICENTER": 191.8113, "MEAN_ANOMALY": 168.1919, "EPHEMERIS_TYPE": 0, "CLASSIFICATION_TYPE": "U", "NORAD_CAT_ID": 32304, "ELEMENT_SET_NO": 999, "REV_AT_EPOCH": 56438, "BSTAR": 0.0011837985, "MEAN_MOTION_DOT": 4.67e-05, "MEAN_MOTION_DDOT": 0}, "tle": {"line1": "1 32304U 99025CWV 25358.13518620  .00004670  00000+0  11838-2 0  9995", "line2": "2 32304  99.3996 314.0193 0049569 191.8113 168.1919 14.50665703564385"}}, "geometry": {"type": "Point", "coordinates": [-68.98234074588346, 69.41538499022813]}}, {"type": "Feature", "properties": {"norad_id": 32308, "name": "FENGYUN 1C DEB", "group": "fengyun-1c-debris", "lat": -4.358184411195491, "lon": -128.7341769167048, "alt_km": 953.4722669450548, "timestamp": "2025-12-26T23:26:42.413587+00:00", "meta": {"OBJECT_NAME": "FENGYUN 1C DEB", "OBJECT_ID": "1999-025CWZ", "EPOCH": "2025-12-24T02:14:10.219776", "MEAN_MOTION": 14.05552927, "ECCENTRICITY": 0.01076508, "INCLINATION": 97.7728, "RA_OF_ASC_NODE": 49.387, "ARG_OF_PERICENTER": 27.4361, "MEAN_ANOMALY": 333.2438, "EPHEMERIS_TYPE": 0, "CLASSIFICATION_TYPE": "U", "NORAD_CAT_ID": 32308, "ELEMENT_SET_NO": 999, "REV_AT_EPOCH": 65571, "BSTAR": 0.0016207472, "MEAN_MOTION_DOT": 2.742e-05, "MEAN_MOTION_DDOT": 0}, "tle": {"line1": "1 32308U 99025CWZ 25358.09317384  .00002742  00000+0  16207-2 0  9991", "line2": "2 32308  97.7728  49.3870 0107650  27.4361 333.2438 14.05552927655711"}}, "geometry": {"type": "Point", "coordinates": [-128.7341769167048, -4.358184411195491]}}, {"type": "Feature", "properties": {"norad_id": 32314, "name": "FENGYUN 1C DEB", "group": "fengyun-1c-debris", "lat": -58.53073381657405, "lon": -87.28638998228156, "alt_km": 698.0965830671594, "timestamp": "2025-12-26T23:26:42.413596+00:00", "meta": {"OBJECT_NAME": "FENGYUN 1C DEB", "OBJECT_ID": "1999-025CXF", "EPOCH": "2025-12-24T00:35:54.225888", "MEAN_MOTION": 14.79780082, "ECCENTRICITY": 0.01485363, "INCLINATION": 98.8637, "RA_OF_ASC_NODE": 104.2292, "ARG_OF_PERICENTER": 122.2161, "MEAN_ANOMALY": 239.3548, "EPHEMERIS_TYPE": 0, "CLASSIFICATION_TYPE": "U", "NORAD_CAT_ID": 32314, "ELEMENT_SET_NO": 999, "REV_AT_EPOCH": 97597, "BSTAR": 0.0012677731, "MEAN_MOTION_DOT": 0.00011459, "MEAN_MOTION_DDOT": 0}, "tle": {"line1": "1 32314U 99025CXF 25358.02493317  .00011459  00000+0  12678-2 0  9995", "line2": "2 32314  98.8637 104.2292 0148536 122.2161 239.3548 14.79780082975975"}}, "geometry": {"type": "Point", "coordinates": [-87.28638998228156, -58.53073381657405]}}, {"type": "Feature", "properties": {"norad_id": 32316, "name": "FENGYUN 1C DEB", "group": "fengyun-1c-debris", "lat": -80.44306809568283, "lon": 115.31336315011886, "alt_km": 708.1305791975319, "timestamp": "2025-12-26T23:26:42.413605+00:00", "meta": {"OBJECT_NAME": "FENGYUN 1C DEB", "OBJECT_ID": "1999-025CXH", "EPOCH": "2025-12-26T00:50:51.058752", "MEAN_MOTION": 14.52040416, "ECCENTRICITY": 0.00264829, "INCLINATION": 99.5277, "RA_OF_ASC_NODE": 28.2675, "ARG_OF_PERICENTER": 288.9464, "MEAN_ANOMALY": 102.6722, "EPHEMERIS_TYPE": 0, "CLASSIFICATION_TYPE": "U", "NORAD_CAT_ID": 32316, "ELEMENT_SET_NO": 999, "REV_AT_EPOCH": 95970, "BSTAR": 0.0017127296, "MEAN_MOTION_DOT": 6.906e-05, "MEAN_MOTION_DDOT": 0}, "tle": {"line1": "1 32316U 99025CXH 25360.03531318  .00006906  00000+0  17127-2 0  9990", "line2": "2 32316  99.5277  28.2675 0026482 288.9464 102.6722 14.52040416959706"}}, "geometry": {"type": "Point", "coordinates": [115.31336315011886, -80.44306809568283]}}, {"type": "Feature", "properties": {"norad_id": 32320, "name": "FENGYUN 1C DEB", "group": "fengyun-1c-debris", "lat": 77.84986747552647, "lon": 99.24596105481335, "alt_km": 762.1318339359104, "timestamp": "2025-12-26T23:26:42.413614+00:00", "meta": {"OBJECT_NAME": "FENGYUN 1C DEB", "OBJECT_ID": "1999-025CXM", "EPOCH": "2025-12-22T13:40:01.485696", "MEAN_MOTION": 14.36184874, "ECCENTRICITY": 0.00563271, "INCLINATION": 100.3743, "RA_OF_ASC_NODE": 215.6434, "ARG_OF_PERICENTER": 20.562, "MEAN_ANOMALY": 339.7809, "EPHEMERIS_TYPE": 0, "CLASSIFICATION_TYPE": "U", "NORAD_CAT_ID": 32320, "ELEMENT_SET_NO": 999, "REV_AT_EPOCH": 62314, "BSTAR": 0.00080066541, "MEAN_MOTION_DOT": 2.318e-05, "MEAN_MOTION_DDOT": 0}, "tle": {"line1": "1 32320U 99025CXM 25356.56946164  .00002318  00000+0  80067-3 0  9994", "line2": "2 32320 100.3743 215.6434 0056327  20.5620 339.7809 14.36184874623144"}}, "geometry": {"type": "Point", "coordinates": [99.24596105481335, 77.84986747552647]}}]}